METOP-C                 
1 43689U 18087A   26066.14660075  .00000135  00000+0  81404-4 0  9992
2 43689  98.6770 127.5627 0002181 103.5555 256.5865 14.21495941380339
GEO-KOMPSAT-2A          
1 43823U 18100A   26066.00441887 -.00000347  00000+0  00000+0 0  9995
2 43823   0.0434 343.1049 0001500  66.9640 244.4740  1.00274944 26604
METEOR-M2 2             
1 44387U 19038A   26066.17589781  .00000102  00000+0  63995-4 0  9991
2 44387  98.9085  51.9926 0001041   9.2004 350.9193 14.24332488346776
ARKTIKA-M 1             
1 47719U 21016A   26065.31200600 -.00000142  00000+0  00000+0 0  9995
2 47719  63.2063  72.3539 7244489 269.4705  15.1937  2.00620361 36724
FENGYUN 3E              
1 49008U 21062A   26066.23569331 -.00000058  00000+0 -63767-5 0  9992
2 49008  98.7511  70.7765 0002410  46.3682 313.7694 14.19893078242115
GOES 18                 
1 51850U 22021A   26066.14628090  .00000094  00000+0  00000+0 0  9997
2 51850   0.0304  62.9266 0000799 346.4918  31.0921  1.00273288  5562
NOAA 21 (JPSS-2)        
1 54234U 22150A   26066.11420876  .00000128  00000+0  81424-4 0  9990
2 54234  98.7552   6.4096 0002612 111.0586 249.0869 14.19551369172062
METEOSAT-12 (MTG-I1)    
1 54743U 22170C   26065.91225401 -.00000011  00000+0  00000+0 0  9999
2 54743   0.7035  21.7653 0001992 288.6085 182.3468  1.00270067 11953
TIANMU-1 03             
1 55973U 23039A   26066.15766968  .00024012  00000+0  52633-3 0  9994
2 55973  97.5176 236.3906 0004072 108.5708 251.5983 15.44080413165079
TIANMU-1 04             
1 55974U 23039B   26066.18179867  .00022048  00000+0  47689-3 0  9996
2 55974  97.5109 235.5765 0004699 104.5369 255.6401 15.44489305165088
TIANMU-1 05             
1 55975U 23039C   26066.19896792  .00021938  00000+0  48212-3 0  9991
2 55975  97.5156 236.0856 0003786 125.2205 234.9397 15.44022495165068
TIANMU-1 06             
1 55976U 23039D   26066.18165066  .00024870  00000+0  53696-3 0  9994
2 55976  97.5167 236.6058 0004146 121.2171 238.9484 15.44520471165080
FENGYUN 3G              
1 56232U 23055A   26066.19092067  .00039413  00000+0  59085-3 0  9996
2 56232  49.9925 151.8965 0010743   1.7514 358.3489 15.54431371164157
METEOR-M2 3             
1 57166U 23091A   26066.21787179  .00000007  00000+0  21996-4 0  9999
2 57166  98.6219 123.2238 0005083 104.8277 255.3465 14.24037328140007
TIANMU-1 07             
1 57399U 23101A   26065.57454230  .00008352  00000+0  29795-3 0  9991
2 57399  97.2728 118.5929 0004609 142.4105 217.7458 15.29118809145964
TIANMU-1 08             
1 57400U 23101B   26066.00237819  .00000346  00000+0  14775-4 0  9993
2 57400  97.2717 118.7901 0006381 134.2174 225.9592 15.29204228146020
TIANMU-1 09             
1 57401U 23101C   26066.18030179  .00008489  00000+0  30367-3 0  9993
2 57401  97.2673 118.4410 0004685 146.4083 213.7456 15.29024615146050
